AKEBONO (EXOS-D)        
1 19822U 89016A   20264.58443877  .00018532  20428-6  32125-3 0  9993
2 19822  75.0072 311.0429 1713024 150.4492 220.5568 12.12288767 51118
HST                     
1 20580U 90037B   20264.56958280  .00000358  00000-0  10780-4 0  9997
2 20580  28.4703  50.5375 0002854  38.1388  33.6493 15.09432819470344
POLAR                   
1 23802U 96013A   20262.88303697  .00000193  00000-0  00000-0 0  9993
2 23802  78.7086 248.6367 6236623 280.2029  19.0101  1.29846476117626
SWAS                    
1 25560U 98071A   20264.40194755  .00000089  00000-0  16895-4 0  9992
2 25560  69.8985 144.7503 0009256 216.2121 143.8410 14.93907739183427
ORSTED                  
1 25635U 99008B   20264.57153489  .00000023  00000-0  12749-4 0  9995
2 25635  96.4464 266.4440 0139988  47.5276 313.7655 14.48222976138389
CXO                     
1 25867U 99040B   20264.37094769  .00000673  00000-0  00000-0 0  9995
2 25867  60.7817 264.3798 7885503 227.2339   0.6269  0.37809601  9413
XMM-NEWTON              
1 25989U 99066A   20265.28143754  .00000067  00000-0  00000+0 0  9994
2 25989  71.0698 318.5513 6985205  92.4933   0.1233  0.50137319 26867
TERRA                   
1 25994U 99068A   20264.48372782 -.00000867  00000-0 -18254-3 0  9992
2 25994  98.2062 337.4178 0001456  99.8814 260.2568 14.57108123104158
CLUSTER II-FM7 (SAMBA)  
1 26410U 00041A   20266.61059476 -.00000158  00000-0  00000-0 0  9997
2 26410 132.0774 342.3755 4508147 185.7656   0.4252  0.44228072 11010
CLUSTER II-FM6 (SALSA)  
1 26411U 00041B   20266.70735578 -.00000306  00000-0  00000+0 0  9996
2 26411 132.2015 343.7581 5850528 191.3736   0.4179  0.44225109 22084
CLUSTER II-FM5 (RUMBA)  
1 26463U 00045A   20266.66693103 -.00000223  00000-0  00000+0 0  9997
2 26463 135.8416 343.4779 5446593 191.2029   0.4349  0.44223519 23351
CLUSTER II-FM8 (TANGO)  
1 26464U 00045B   20266.59972681 -.00000158  00000-0  00000-0 0  9999
2 26464 132.0751 342.3737 4509164 185.7388   0.4601  0.44218662 11029
ODIN                    
1 26702U 01007A   20264.53379996 -.00000175  00000-0 -72618-5 0  9994
2 26702  97.5534 279.9042 0009718 307.2238  52.8103 15.08142139 70544
TIMED                   
1 26998U 01055B   20264.58602910  .00000048  00000-0  92064-5 0  9998
2 26998  74.0708 103.8143 0001199 213.9047 146.2057 14.88214737 18614
RHESSI                  
1 27370U 02004A   20264.50995602  .00001254  00000-0  42719-4 0  9994
2 27370  38.0334 319.1245 0011354  28.5465 331.5926 15.33112332 28925
INTEGRAL                
1 27540U 02048A   20259.91959736  .00000389  00000-0  00000+0 0  9998
2 27540  56.6953 106.5518 8976679 294.1035   1.8774  0.37585368 18737
CORIOLIS                
1 27640U 03001A   20264.61206792 -.00000024  00000-0  93805-5 0  9997
2 27640  98.7274 272.6015 0015127 121.0604 346.0832 14.19046950916934
SORCE                   
1 27651U 03004A   20264.40493723  .00000024  00000-0  16692-4 0  9998
2 27651  39.9952 160.5024 0023156 323.4367  36.4841 14.89147219958388
MOST                    
1 27843U 03031D   20264.56576792 -.00000028  00000-0  71554-5 0  9990
2 27843  98.7114 270.4848 0010087 173.0679 187.0639 14.20617427893107
SCISAT 1                
1 27858U 03036A   20264.40840704  .00000025  00000-0  85933-5 0  9993
2 27858  73.9354 357.5653 0008017 192.6241 167.4733 14.77300680921670
SWIFT                   
1 28485U 04047A   20264.59112142  .00000748  00000-0  20440-4 0  9994
2 28485  20.5570  78.8385 0011040 179.7878 180.2562 15.04676483867829
FORMOSAT-3 FM6          
1 29047U 06011A   20264.48682071 -.00000013  00000-0  11239-4 0  9995
2 29047  71.9763 276.0209 0052506 258.6053 100.9182 14.28746351754895
FORMOSAT-3 FM1          
1 29048U 06011B   20264.50784766  .00000043  00000-0  33176-4 0  9999
2 29048  71.9670 186.7762 0044903 218.1156 141.6802 14.28716676757386
FORMOSAT-3 FM5          
1 29049U 06011C   20264.57356551  .00000044  00000-0  33447-4 0  9996
2 29049  72.0230 358.8306 0036679 243.4636 116.2738 14.28796763753187
FORMOSAT-3 FM3          
1 29050U 06011D   20264.38127681  .00000126  00000-0  36695-4 0  9996
2 29050  72.0152 135.6164 0048996 154.1623 206.1993 14.58947674770277
FORMOSAT-3 FM4          
1 29051U 06011E   20264.43167931  .00000042  00000-0  32001-4 0  9999
2 29051  72.0030 260.9916 0066391 121.5775 239.1866 14.28829722755756
FORMOSAT-3 FM2          
1 29052U 06011F   20264.56426723  .00000067  00000-0  42342-4 0  9997
2 29052  72.0360 335.2127 0040826 203.7592 156.1661 14.28935933753287
CLOUDSAT                
1 29107U 06016A   20264.61017340  .00000075  00000-0  24157-4 0  9993
2 29107  98.2389 211.5903 0002984  88.0610 272.0933 14.62456606766237
CALIPSO                 
1 29108U 06016B   20264.60991068  .00000088  00000-0  26717-4 0  9999
2 29108  98.2372 211.3540 0001253  80.8381 279.2962 14.62439804766229
HINODE (SOLAR-B)        
1 29479U 06041A   20264.56053313  .00000020  00000-0  12701-4 0  9999
2 29479  98.1595 275.6042 0018393  71.0506 289.2688 14.65085673747814
SJ-6C                   
1 29505U 06046A   20264.57402881 -.00000347  00000-0 -26539-4 0  9991
2 29505  97.8155 277.9640 0006132  77.9598 282.2314 14.94909791757824
SJ-6D                   
1 29506U 06046B   20264.47347808  .00000689  00000-0  70819-4 0  9995
2 29506  97.8351 278.0129 0002922 133.4493 226.6966 14.93535821757353
AGILE                   
1 31135U 07013A   20264.45334560  .00001980  00000-0  25626-4 0  9991
2 31135   2.4669 170.9689 0012047 223.0405 136.8706 15.32519781746642
AIM                     
1 31304U 07015A   20264.56546791  .00000486  00000-0  30928-4 0  9995
2 31304  97.8926 150.8404 0006232  44.8793 315.2940 15.13720661735072
FGRST (GLAST)           
1 33053U 08029A   20264.45217823  .00000441  00000-0  84064-5 0  9995
2 33053  25.5821 173.4231 0012456  28.5470 331.5746 15.11370149677702
WISE                    
1 36119U 09071A   20264.55474802  .00000425  00000-0  17042-4 0  9995
2 36119  97.3207 299.5154 0004006  65.0458 295.1199 15.30236055598348
SDO                     
1 36395U 10005A   20264.11368762 -.00000068  00000-0  00000-0 0  9995
2 36395  30.4781 119.7133 0001235   9.7798 169.0896  1.00274797 39049
CRYOSAT 2               
1 36508U 10013A   20264.57122207  .00000003  00000-0  77065-7 0  9992
2 36508  92.0239 130.7957 0003805 235.4845 124.6003 14.51902445554070
X-SAT                   
1 37389U 11015C   20264.56010829 -.00000023  00000-0  79844-5 0  9996
2 37389  98.4257 316.0718 0014469  17.1105 343.0562 14.24381638489826
GCOM-W1 (SHIZUKU)       
1 38337U 12025A   20264.45455934  .00000025  00000-0  15503-4 0  9992
2 38337  98.2022 203.0647 0002537  52.6399  59.5075 14.57143778443843
NUSTAR                  
1 38358U 12031A   20264.54240216  .00000906  00000-0  20866-4 0  9993
2 38358   6.0269 298.2964 0011741 183.7407 176.2634 14.88340992450204
NEOSSAT                 
1 39089U 13009D   20264.55232831  .00000037  00000-0  28514-4 0  9999
2 39089  98.4612 104.4734 0011572  11.0028 349.1408 14.34522722396180
IRIS                    
1 39197U 13033A   20264.47604133  .00000031  00000-0  11437-4 0  9995
2 39197  97.9618  85.5394 0026337 283.4513  76.3764 14.78752272390147
HISAKI (SPRINT-A)       
1 39253U 13049A   20264.46328902  .00000128  00000-0  84882-4 0  9992
2 39253  29.7208  71.4714 0137498 311.5846  47.3011 13.55228721346900
CASSIOPE                
1 39265U 13055A   20264.50118273  .00003902  00000-0  10857-3 0  9998
2 39265  80.9684 215.0311 0659495  25.0659 338.1051 14.29865697361389
STSAT-3                 
1 39422U 13066G   20264.54539631  .00000008  00000-0  63619-5 0  9994
2 39422  97.5056 292.5053 0021729 234.7246 125.1940 14.89857206371293
SWARM B                 
1 39451U 13067A   20264.55139193  .00000216  00000-0  79353-5 0  9990
2 39451  87.7486 251.3175 0002394 117.0323 243.1167 15.21783134364421
SWARM A                 
1 39452U 13067B   20264.55997873  .00000704  00000-0  14072-4 0  9996
2 39452  87.3560  96.0996 0003156  76.3081 283.8528 15.44712838383860
SWARM C                 
1 39453U 13067C   20264.55989750  .00000700  00000-0  13990-4 0  9996
2 39453  87.3413  96.8645 0003155  76.2818 283.8790 15.44713484383828
BRITE-CA1 (TORONTO)     
1 40020U 14033L   20264.51634538 -.00000022  00000-0  44283-5 0  9997
2 40020  97.7325  87.2919 0088482 128.7485 232.1670 14.66659406334707
OCO 2                   
1 40059U 14035A   20264.56695603  .00000020  00000-0  14536-4 0  9990
2 40059  98.2010 203.9284 0001285  76.5743 283.5598 14.57114482330874
BRITE-PL2 (HEWELIUSZ)   
1 40119U 14049B   20264.29071337  .00000080  00000-0  15889-4 0  9992
2 40119  97.8947 355.5768 0018033 155.1006 205.1082 14.84533225329765
RESURS P2               
1 40360U 14087A   20264.50724744  .00000437  00000-0  15767-4 0  9994
2 40360  97.2441 351.4579 0008483 193.9489 223.0273 15.33654330320885
MMS 1                   
1 40482U 15011A   20264.25238755 -.00001169  00000-0  00000+0 0  9994
2 40482  30.1909 119.6120 8539949  24.0454 136.5396  0.28650880 11482
MMS 2                   
1 40483U 15011B   20264.25238755 -.00001168  00000-0  00000+0 0  9994
2 40483  30.1895 119.6130 8537414  24.0473 136.5279  0.28650832 11469
MMS 3                   
1 40484U 15011C   20264.09562010 -.00001149  00000-0  00000+0 0  9990
2 40484  30.2094 119.6214 8541962  24.0467 120.3767  0.28658537 11464
MMS 4                   
1 40485U 15011D   20264.09562010 -.00001149  00000-0  00000+0 0  9991
2 40485  30.1952 119.6377 8539655  24.0385 120.3280  0.28650968 11462
ASTROSAT                
1 40930U 15052A   20264.41870325  .00000727  00000-0  12952-4 0  9992
2 40930   5.9977  25.4111 0008475 175.7429 184.2770 14.76330536269271
DAMPE                   
1 41173U 15078A   20264.52741581  .00000021  00000-0  37827-5 0  9999
2 41173  97.3302 256.3644 0012016 278.4615 235.3964 15.23898593264877
PISAT                   
1 41784U 16059B   20264.39437488  .00000057  00000-0  19914-4 0  9995
2 41784  98.0092 318.2637 0032217  16.7686 343.4574 14.63538222212790
HXMT (HUIYAN)           
1 42758U 17034A   20264.39895192  .00000147  00000-0  22849-4 0  9992
2 42758  43.0182 235.1128 0011540 268.6456 228.3188 15.08891073180212
FLYING LAPTOP           
1 42831U 17042G   20264.54978733  .00000162  00000-0  21649-4 0  9997
2 42831  97.5064 141.9476 0013460 334.3057  25.7492 14.91157155173461
PICSAT                  
1 43132U 18004X   20264.29066686  .00000915  00000-0  39960-4 0  9999
2 43132  97.4400 335.0258 0011163  82.3243 277.9261 15.24626431149506
ZHANGZHENG-1 (CSES)     
1 43194U 18015C   20264.52518223  .00000464  00000-0  24158-4 0  9996
2 43194  97.4484  28.4253 0016423 130.1617 359.8419 15.20794463146111
ICON                    
1 44628U 19068A   20264.35814664  .00000401  00000-0  19137-4 0  9999
2 44628  26.9896 134.3367 0018797 280.9966  78.8477 14.91733372 51619
